NORAD_CAT_ID,OBJECT_NAME,OBJECT_TYPE,EPOCH,MEAN_MOTION,ECCENTRICITY,INCLINATION,RA_OF_ASC_NODE,ARG_OF_PERICENTER,MEAN_ANOMALY,BSTAR,MEAN_MOTION_DOT,MEAN_MOTION_DDOT,TLE_LINE0,TLE_LINE1,TLE_LINE2,SEMIMAJOR_AXIS,PERIOD,APOGEE,PERIGEE,DECAYED
52702.0,STARLINK-4033,PAYLOAD,2022-07-22 22:00:00,15.09787615,0.0001351999999999,53.2172,340.7411,49.8651,303.0567,-0.059465,-0.00899999,0.0,0 STARLINK-4033,1 52702U 22053AY  22203.91667824 -.00899999  00000-0 -59465-1 0  9995,2 52702  53.2172 340.7411 0001352  49.8651 303.0567 15.09787615  1309,6914.985,95.378,537.785,535.9159999999998,0.0
52702.0,STARLINK-4033,PAYLOAD,2022-07-23 06:00:00,15.090458900000002,0.0001111,53.2173,339.2428,83.3083,281.9645,-0.0195289999999999,-0.00300051,0.0,0 STARLINK-4033,1 52702U 22053AY  22204.25001157 -.00300051  00000-0 -19529-1 0  9997,2 52702  53.2173 339.2428 0001111  83.3083 281.9645 15.09045890 10589,6917.251,95.425,539.885,538.3480000000002,0.0
52702.0,STARLINK-4033,PAYLOAD,2022-07-23 14:00:01,15.08858301,0.0001549,53.2172,337.7449,56.9629,320.0696,-0.0020984,-0.00033546,0.0,0 STARLINK-4033,1 52702U 22053AY  22204.58335648 -.00033546  00000-0 -20984-2 0  9998,2 52702  53.2172 337.7449 0001549  56.9629 320.0696 15.08858301 10636,6917.824000000001,95.436,540.761,538.618,0.0
52702.0,STARLINK-4033,PAYLOAD,2022-07-23 22:00:00,15.08854117,0.0001626999999999,53.2158,336.2397,56.2359,332.3557,0.00052791,8.127e-05,0.0,0 STARLINK-4033,1 52702U 22053AY  22204.91667824  .00008127  00000-0  52791-3 0  9996,2 52702  53.2158 336.2397 0001627  56.2359 332.3557 15.08854117  1303,6917.837,95.437,540.828,538.577,0.0
52702.0,STARLINK-4033,PAYLOAD,2022-07-24 14:00:01,15.08833847,0.0001382,53.2163,333.2466,55.3327,356.4728,-0.0051247,-0.00080918,0.0,0 STARLINK-4033,1 52702U 22053AY  22205.58334491 -.00080918  00000-0 -51247-2 0  9995,2 52702  53.2163 333.2466 0001382  55.3327 356.4728 15.08833847 10782,6917.899,95.438,540.72,538.808,0.0
52702.0,STARLINK-4033,PAYLOAD,2022-07-24 22:00:00,15.0878144,0.0001365999999999,53.2161,331.7504,49.6562,13.6977,0.0016335999999999,0.00025765,0.0,0 STARLINK-4033,1 52702U 22053AY  22205.91667824  .00025765  00000-0  16336-2 0  9998,2 52702  53.2161 331.7504 0001366  49.6562  13.6977 15.08781440  1302,6918.059,95.441,540.869,538.979,0.0
52702.0,STARLINK-4033,PAYLOAD,2022-07-25 06:00:00,15.08790012,0.0001254,53.2164,330.2525,60.7088,14.1837,0.0036966,0.00058955,0.0,0 STARLINK-4033,1 52702U 22053AY  22206.25001157  .00058955  00000-0  36966-2 0  9995,2 52702  53.2164 330.2525 0001254  60.7088  14.1837 15.08790012 10884,6918.033,95.441,540.766,539.031,0.0
52702.0,STARLINK-4033,PAYLOAD,2022-07-25 14:00:01,15.08834109,0.0001395,53.2164,328.7577,55.5859,30.8674,-0.0012249,-0.00019726,0.0,0 STARLINK-4033,1 52702U 22053AY  22206.58334491 -.00019726  00000-0 -12249-2 0  9994,2 52702  53.2164 328.7577 0001395  55.5859  30.8674 15.08834109  1304,6917.898,95.438,540.7280000000002,538.798,0.0
52702.0,STARLINK-4033,PAYLOAD,2022-07-25 22:00:00,15.08854002,0.0001346,53.2162,327.2611,56.9955,41.1269,-0.0006853,-0.00011182,0.0,0 STARLINK-4033,1 52702U 22053AY  22206.91667824 -.00011182  00000-0 -68530-3 0  9993,2 52702  53.2162 327.2611 0001346  56.9955  41.1269 15.08854002  1302,6917.8380000000025,95.437,540.634,538.771,0.0
52702.0,STARLINK-4033,PAYLOAD,2022-07-26 04:00:01,15.08831452,0.0001215,53.2164,326.1375,66.5679,310.3291,0.0015199999999999,0.0002398,0.0,0 STARLINK-4033,1 52702U 22053AY  22207.16668981  .00023980  00000-0  15200-2 0  9998,2 52702  53.2164 326.1375 0001215  66.5679 310.3291 15.08831452 11024,6917.906999999997,95.438,540.612,538.931,0.0
52702.0,STARLINK-4033,PAYLOAD,2022-07-26 14:00:01,15.08837283,0.0001418,53.2163,324.2686,63.1786,58.1524,-0.0015288,-0.00024534,0.0,0 STARLINK-4033,1 52702U 22053AY  22207.58334491 -.00024534  00000-0 -15288-2 0  9994,2 52702  53.2163 324.2686 0001418  63.1786  58.1524 15.08837283  1308,6917.889,95.438,540.735,538.773,0.0
52702.0,STARLINK-4033,PAYLOAD,2022-07-26 20:00:01,15.08820862,0.0001408,53.216,323.1466,58.5457,341.4744,0.0015394,0.00024284,0.0,0 STARLINK-4033,1 52702U 22053AY  22207.83334491  .00024284  00000-0  15394-2 0  9990,2 52702  53.2160 323.1466 0001408  58.5457 341.4744 15.08820862 11129,6917.939,95.439,540.778,538.83,0.0
52702.0,STARLINK-4033,PAYLOAD,2022-07-26 22:00:00,15.08841857,0.0001399,53.2159,322.772,60.7625,72.1472,-0.0010842,-0.00017502,0.0,0 STARLINK-4033,1 52702U 22053AY  22207.91667824 -.00017502  00000-0 -10842-2 0  9998,2 52702  53.2159 322.7720 0001399  60.7625  72.1472 15.08841857  1308,6917.875,95.437,540.7080000000002,538.7719999999998,0.0
52702.0,STARLINK-4033,PAYLOAD,2022-07-27 14:00:01,15.08840137,0.0001409,53.2159,319.7798,63.5793,92.5067,-0.00085072,-0.00013802,0.0,0 STARLINK-4033,1 52702U 22053AY  22208.58334491 -.00013802  00000-0 -85072-3 0  9990,2 52702  53.2159 319.7798 0001409  63.5793  92.5067 15.08840137 11248,6917.88,95.438,540.72,538.77,0.0
52702.0,STARLINK-4033,PAYLOAD,2022-07-27 22:00:00,15.0885568,0.0001378,53.2156,318.2831,61.4796,106.1951,-0.0014575999999999,-0.0002342,0.0,0 STARLINK-4033,1 52702U 22053AY  22208.91667824 -.00023420  00000-0 -14576-2 0  9993,2 52702  53.2156 318.2831 0001378  61.4796 106.1951 15.08855680  1301,6917.831999999999,95.437,540.651,538.744,0.0
52702.0,STARLINK-4033,PAYLOAD,2022-07-28 06:00:00,15.08834381,0.0001312,53.2157,316.7855,71.0025,108.2782,0.0020198,0.00031998,0.0,0 STARLINK-4033,1 52702U 22053AY  22209.25001157  .00031998  00000-0  20198-2 0  9996,2 52702  53.2157 316.7855 0001312  71.0025 108.2782 15.08834381 11346,6917.898,95.438,540.67,538.855,0.0
52702.0,STARLINK-4033,PAYLOAD,2022-07-28 14:00:01,15.08860003,0.0001462,53.2155,315.2909,62.9807,127.903,-0.0020728,-0.00033143,0.0,0 STARLINK-4033,1 52702U 22053AY  22209.58334491 -.00033143  00000-0 -20728-2 0  9997,2 52702  53.2155 315.2909 0001462  62.9807 127.9030 15.08860003  1300,6917.819,95.436,540.696,538.673,0.0
52702.0,STARLINK-4033,PAYLOAD,2022-07-28 22:00:00,15.08849709,0.0001463,53.2154,313.7940000000001,62.2441,140.244,-0.0024601999999999,-0.00039239,0.0,0 STARLINK-4033,1 52702U 22053AY  22209.91667824 -.00039239  00000-0 -24602-2 0  9990,2 52702  53.2154 313.7940 0001463  62.2441 140.2440 15.08849709  1308,6917.851,95.437,540.7280000000002,538.7040000000002,0.0
52702.0,STARLINK-4033,PAYLOAD,2022-07-29 14:00:01,15.0883382,0.0001593,53.2154,310.802,62.9963,162.6732,-0.00025476,-4.34e-05,0.0,0 STARLINK-4033,1 52702U 22053AY  22210.58334491 -.00004340  00000-0 -25476-3 0  9992,2 52702  53.2154 310.8020 0001593  62.9963 162.6732 15.08833820 11541,6917.899,95.438,540.866,538.6619999999998,0.0
52702.0,STARLINK-4033,PAYLOAD,2022-07-29 22:00:00,15.08856392,0.0001571,53.2154,309.3049,63.0291,174.2247,-0.0045584,-0.00072141,0.0,0 STARLINK-4033,1 52702U 22053AY  22210.91667824 -.00072141  00000-0 -45584-2 0  9993,2 52702  53.2154 309.3049 0001571  63.0291 174.2247 15.08856392  1309,6917.83,95.437,540.7819999999998,538.6080000000002,0.0
52702.0,STARLINK-4033,PAYLOAD,2022-07-30 14:00:01,15.08812958,0.0001730999999999,53.2155,306.313,63.0892,197.3187,0.00027917,4.155e-05,0.0,0 STARLINK-4033,1 52702U 22053AY  22211.58334491  .00004155  00000-0  27917-3 0  9997,2 52702  53.2155 306.3130 0001731  63.0892 197.3187 15.08812958  1302,6917.9630000000025,95.439,541.026,538.631,0.0
52702.0,STARLINK-4033,PAYLOAD,2022-07-30 20:00:01,15.08829685,0.0001689,53.2154,305.1905,61.2889,117.7908,-0.00048674,-8.024e-05,0.0,0 STARLINK-4033,1 52702U 22053AY  22211.83334491 -.00008024  00000-0 -48674-3 0  9999,2 52702  53.2154 305.1905 0001689  61.2889 117.7908 15.08829685 11736,6917.9119999999975,95.438,540.945,538.6080000000002,0.0
52702.0,STARLINK-4033,PAYLOAD,2022-07-30 22:00:00,15.0884131,0.0001641,53.2155,304.8159,63.2167,208.7546,-0.0021951,-0.00035055,0.0,0 STARLINK-4033,1 52702U 22053AY  22211.91667824 -.00035055  00000-0 -21951-2 0  9999,2 52702  53.2155 304.8159 0001641  63.2167 208.7546 15.08841310  1303,6917.876,95.437,540.877,538.606,0.0
52702.0,STARLINK-4033,PAYLOAD,2022-07-31 14:00:01,15.08824955,0.0001753,53.2157,301.824,62.1297,233.0103,0.00064798,0.00010035,0.0,0 STARLINK-4033,1 52702U 22053AY  22212.58334491  .00010035  00000-0  64798-3 0  9990,2 52702  53.2157 301.8240 0001753  62.1297 233.0103 15.08824955  1305,6917.926,95.439,541.004,538.5790000000002,0.0
52702.0,STARLINK-4033,PAYLOAD,2022-07-31 20:00:01,15.08846133,0.000169,53.2154,300.7013,61.3666,152.4541,-0.0011217,-0.00018099,0.0,0 STARLINK-4033,1 52702U 22053AY  22212.83334491 -.00018099  00000-0 -11217-2 0  9995,2 52702  53.2154 300.7013 0001690  61.3666 152.4541 15.08846133 11885,6917.861999999999,95.437,540.896,538.558,0.0
52702.0,STARLINK-4033,PAYLOAD,2022-07-31 22:00:00,15.08852604,0.0001646,53.2156,300.3267,63.1622,243.5555,-0.0022221999999999,-0.00035493,0.0,0 STARLINK-4033,1 52702U 22053AY  22212.91667824 -.00035493  00000-0 -22222-2 0  9998,2 52702  53.2156 300.3267 0001646  63.1622 243.5555 15.08852604  1300,6917.842,95.437,540.846,538.568,0.0
52702.0,STARLINK-4033,PAYLOAD,2022-08-01 14:00:01,15.08835713,0.0001737,53.2156,297.3349,61.8175,268.0992,0.0008591,0.00013409,0.0,0 STARLINK-4033,1 52702U 22053AY  22213.58334491  .00013409  00000-0  85910-3 0  9998,2 52702  53.2156 297.3349 0001737  61.8175 268.0992 15.08835713 11990,6917.893,95.438,540.96,538.557,0.0
52702.0,STARLINK-4033,PAYLOAD,2022-08-01 22:00:00,15.08863642,0.0001619,53.2154,295.8373,63.8857,277.6264,-0.001976,-0.00031619,0.0,0 STARLINK-4033,1 52702U 22053AY  22213.91667824 -.00031619  00000-0 -19760-2 0  9998,2 52702  53.2154 295.8373 0001619  63.8857 277.6264 15.08863642  1300,6917.808000000001,95.436,540.793,538.553,0.0
52702.0,STARLINK-4033,PAYLOAD,2022-08-02 14:00:01,15.08856103,0.000164,53.2153,292.8456,61.1329,303.6013,-0.0016284,-0.00026122,0.0,0 STARLINK-4033,1 52702U 22053AY  22214.58334491 -.00026122  00000-0 -16284-2 0  9994,2 52702  53.2153 292.8456 0001640  61.1329 303.6013 15.08856103 12147,6917.831,95.437,540.831,538.562,0.0
